{
  "links" : {
    "next" : "https://api.nasa.gov/neo/rest/v1/feed?start_date=2011-05-23&end_date=2011-05-23&detailed=true&api_key=t0TVs3DtDT2H8Oy2Zy8m2eVrNsAVKAexjcZXUckd",
    "prev" : "https://api.nasa.gov/neo/rest/v1/feed?start_date=2011-05-21&end_date=2011-05-21&detailed=true&api_key=t0TVs3DtDT2H8Oy2Zy8m2eVrNsAVKAexjcZXUckd",
    "self" : "https://api.nasa.gov/neo/rest/v1/feed?start_date=2011-05-22&end_date=2011-05-22&detailed=true&api_key=t0TVs3DtDT2H8Oy2Zy8m2eVrNsAVKAexjcZXUckd"
  },
  "element_count" : 8,
  "near_earth_objects" : {
    "2011-05-22" : [ {
      "links" : {
        "self" : "https://api.nasa.gov/neo/rest/v1/neo/3744833?api_key=t0TVs3DtDT2H8Oy2Zy8m2eVrNsAVKAexjcZXUckd"
      },
      "neo_reference_id" : "3744833",
      "name" : "(2016 DV1)",
      "nasa_jpl_url" : "http://ssd.jpl.nasa.gov/sbdb.cgi?sstr=3744833",
      "absolute_magnitude_h" : 24.8,
      "estimated_diameter" : {
        "kilometers" : {
          "estimated_diameter_min" : 0.0291443905,
          "estimated_diameter_max" : 0.0651688382
        },
        "meters" : {
          "estimated_diameter_min" : 29.1443904535,
          "estimated_diameter_max" : 65.1688382168
        },
        "miles" : {
          "estimated_diameter_min" : 0.018109479,
          "estimated_diameter_max" : 0.0404940262
        },
        "feet" : {
          "estimated_diameter_min" : 95.6180819754,
          "estimated_diameter_max" : 213.8085311752
        }
      },
      "is_potentially_hazardous_asteroid" : false,
      "close_approach_data" : [ {
        "close_approach_date" : "2011-05-22",
        "epoch_date_close_approach" : 1306047600000,
        "relative_velocity" : {
          "kilometers_per_second" : "16.7199550436",
          "kilometers_per_hour" : "60191.8381570007",
          "miles_per_hour" : "37400.8674370541"
        },
        "miss_distance" : {
          "astronomical" : "0.3375408545",
          "lunar" : "131.3033905029",
          "kilometers" : "50495396",
          "miles" : "31376384"
        },
        "orbiting_body" : "Earth"
      } ],
      "orbital_data" : {
        "orbit_id" : "22",
        "orbit_determination_date" : "2017-04-14 06:13:06",
        "orbit_uncertainty" : "6",
        "minimum_orbit_intersection" : ".00111332",
        "jupiter_tisserand_invariant" : "3.748",
        "epoch_osculation" : "2458000.5",
        "eccentricity" : ".6303039712139052",
        "semi_major_axis" : "1.84150548490428",
        "inclination" : "3.374672776372287",
        "ascending_node_longitude" : "161.7233579501396",
        "orbital_period" : "912.7628421176277",
        "perihelion_distance" : ".6807972647569243",
        "perihelion_argument" : "80.00148144803461",
        "aphelion_distance" : "3.002213705051637",
        "perihelion_time" : "2458409.998692645243",
        "mean_anomaly" : "198.4908734778562",
        "mean_motion" : ".3944069405419626",
        "equinox" : "J2000"
      }
    }, {
      "links" : {
        "self" : "https://api.nasa.gov/neo/rest/v1/neo/3705044?api_key=t0TVs3DtDT2H8Oy2Zy8m2eVrNsAVKAexjcZXUckd"
      },
      "neo_reference_id" : "3705044",
      "name" : "(2015 BY310)",
      "nasa_jpl_url" : "http://ssd.jpl.nasa.gov/sbdb.cgi?sstr=3705044",
      "absolute_magnitude_h" : 21.7,
      "estimated_diameter" : {
        "kilometers" : {
          "estimated_diameter_min" : 0.1214940408,
          "estimated_diameter_max" : 0.2716689341
        },
        "meters" : {
          "estimated_diameter_min" : 121.4940407996,
          "estimated_diameter_max" : 271.6689340891
        },
        "miles" : {
          "estimated_diameter_min" : 0.0754928736,
          "estimated_diameter_max" : 0.1688071972
        },
        "feet" : {
          "estimated_diameter_min" : 398.6025088171,
          "estimated_diameter_max" : 891.3023057169
        }
      },
      "is_potentially_hazardous_asteroid" : true,
      "close_approach_data" : [ {
        "close_approach_date" : "2011-05-22",
        "epoch_date_close_approach" : 1306047600000,
        "relative_velocity" : {
          "kilometers_per_second" : "8.2605381652",
          "kilometers_per_hour" : "29737.937394651",
          "miles_per_hour" : "18477.997821693"
        },
        "miss_distance" : {
          "astronomical" : "0.0901765895",
          "lunar" : "35.0786933899",
          "kilometers" : "13490226",
          "miles" : "8382438"
        },
        "orbiting_body" : "Earth"
      } ],
      "orbital_data" : {
        "orbit_id" : "40",
        "orbit_determination_date" : "2017-04-06 08:36:09",
        "orbit_uncertainty" : "0",
        "minimum_orbit_intersection" : ".023895",
        "jupiter_tisserand_invariant" : "4.293",
        "epoch_osculation" : "2458000.5",
        "eccentricity" : ".3997762951740415",
        "semi_major_axis" : "1.583610894735984",
        "inclination" : "4.868735362935027",
        "ascending_node_longitude" : "328.9324231251048",
        "orbital_period" : "727.8990427003713",
        "perihelion_distance" : ".9505207982411832",
        "perihelion_argument" : "229.1749932411553",
        "aphelion_distance" : "2.216700991230784",
        "perihelion_time" : "2457851.617266614869",
        "mean_anomaly" : "73.63354101938273",
        "mean_motion" : ".4945740808566891",
        "equinox" : "J2000"
      }
    } ]
  }
}